0 ATLAS D DEB
1 02329U 66063D   13282.48789884  .00000726  00000-0  39187-3 0  7678
2 02329 144.2730 196.8335 0016465 114.6617 325.6659 13.87069868378024
0 ATLAS D DEB
1 02329U 66063D   13284.50142072  .00000923  00000-0  55752-3 0  7681
2 02329 144.2733 206.9204 0016693 128.8820 300.1417 13.87074254378307
0 ATLAS D DEB
1 02329U 66063D   13285.71782391  .00001140  00000-0  73984-3 0  7699
2 02329 144.2735 213.0141 0016714 137.7117 254.0086 13.87078142378477
0 ATLAS D DEB
1 02329U 66063D   13287.46267775  .00001325  00000-0  89490-3 0  7703
2 02329 144.2741 221.7552 0016917 149.9417 327.0402 13.87082846378715
0 ATLAS D DEB
1 02329U 66063D   13288.47056517  .00001706  00000-0  12156-2 0  7713
2 02329 144.2745 226.8044 0017061 156.9312 320.0803 13.87087300378857
0 ATLAS D DEB
1 02329U 66063D   13290.48668622  .00001615  00000-0  11389-2 0  7720
2 02329 144.2753 236.9045 0017149 171.1704 307.6559 13.87093425379136
0 ATLAS D DEB
1 02329U 66063D   13291.49475623  .00001620  00000-0  11426-2 0  7738
2 02329 144.2755 241.9547 0017265 178.0318 301.7665 13.87096074379278
0 ATLAS D DEB
1 02329U 66063D   13292.50281168  .00001662  00000-0  11782-2 0  7742
2 02329 144.2756 247.0048 0017373 184.8972 295.8106 13.87098626379417
0 ATLAS D DEB
1 02329U 66063D   13293.51087213  .00001682  00000-0  11947-2 0  7755
2 02329 144.2758 252.0549 0017462 191.7100 289.9389 13.87101193379556
0 ATLAS D DEB
1 02329U 66063D   13294.51892858  .00001595  00000-0  11215-2 0  7767
2 02329 144.2759 257.1052 0017534 198.5338 284.0446 13.87103850379697
0 ATLAS D DEB
1 02329U 66063D   13295.52698764  .00001602  00000-0  11278-2 0  7778
2 02329 144.2759 262.1554 0017591 205.2687 278.2610 13.87106360379839
